{
  "type": "FeatureCollection",
  "features": [
    {
      "type": "Feature",
      "properties": {
        "landuse": "residential",
        "name": "Sample Residential"
      },
      "geometry": {
        "type": "MultiPolygon",
        "coordinates": [
          [
            [
              [13.4, 52.5],
              [13.401, 52.5],
              [13.401, 52.501],
              [13.4, 52.501],
              [13.4, 52.5]
            ]
          ]
        ]
      }
    },
    {
      "type": "Feature",
      "properties": {
        "landuse": "commercial",
        "name": "Sample Commercial"
      },
      "geometry": {
        "type": "MultiPolygon",
        "coordinates": [
          [
            [
              [13.402, 52.5],
              [13.403, 52.5],
              [13.403, 52.501],
              [13.402, 52.501],
              [13.402, 52.5]
            ]
          ]
        ]
      }
    },
    {
      "type": "Feature",
      "properties": {
        "natural": "water",
        "name": "Sample Water"
      },
      "geometry": {
        "type": "MultiPolygon",
        "coordinates": [
          [
            [
              [13.404, 52.5],
              [13.405, 52.5],
              [13.405, 52.501],
              [13.404, 52.501],
              [13.404, 52.5]
            ]
          ]
        ]
      }
    }
  ]
}
